[{"OBJECT_NAME":"STARLINK-3553","OBJECT_ID":"2022-022Q","EPOCH":"2026-03-09T02:24:12.753504","MEAN_MOTION":15.08840706,"ECCENTRICITY":0.00013372,"INCLINATION":53.2194,"RA_OF_ASC_NODE":11.6232,"ARG_OF_PERICENTER":87.3208,"MEAN_ANOMALY":272.7937,"EPHEMERIS_TYPE":0,"CLASSIFICATION_TYPE":"U","NORAD_CAT_ID":51866,"ELEMENT_SET_NO":999,"REV_AT_EPOCH":22302,"BSTAR":-2.2099268e-5,"MEAN_MOTION_DOT":-6.4e-6,"MEAN_MOTION_DDOT":0},{"OBJECT_NAME":"NANOFF A","OBJECT_ID":"2023-185T","EPOCH":"2026-03-09T23:34:34.415328","MEAN_MOTION":15.11542977,"ECCENTRICITY":0.00086783,"INCLINATION":97.5359,"RA_OF_ASC_NODE":137.8345,"ARG_OF_PERICENTER":292.8968,"MEAN_ANOMALY":67.1346,"EPHEMERIS_TYPE":0,"CLASSIFICATION_TYPE":"U","NORAD_CAT_ID":58810,"ELEMENT_SET_NO":999,"REV_AT_EPOCH":11805,"BSTAR":0.00027314844,"MEAN_MOTION_DOT":4.57e-5,"MEAN_MOTION_DDOT":0}]
